STARLINK-4134           
1 53254U 22086N   24359.34291322 -.00000017  00000+0  17039-4 0  9998
2 53254  53.2189  10.9235 0001486  90.0501 270.0661 15.08838332134600
STARLINK-4142           
1 53255U 22086P   24359.32723402  .00001042  00000+0  83545-4 0  9999
2 53255  53.2185  10.9836 0001306  86.0779 274.0363 15.08837346134581
STARLINK-4147           
1 53256U 22086Q   24359.33091264 -.00000070  00000+0  13684-4 0  9993
2 53256  53.2192  10.9730 0001618 108.2296 251.8872 15.08838693134584
STARLINK-4144           
1 53257U 22086R   24359.31619235  .00000219  00000+0  31878-4 0  9995
2 53257  53.2192  11.0323 0001334  94.2259 265.8885 15.08840068134581
STARLINK-4127           
1 53258U 22086S   24359.32354802 -.00003238  00000+0 -18535-3 0  9993
2 53258  53.2189  11.0006 0001482 103.1799 256.9358 15.08855673134583
STARLINK-4140           
1 53259U 22086T   24359.34559132  .00000688  00000+0  61292-4 0  9992
2 53259  53.2182  10.5429 0001336  98.3766 261.7378 15.08835217134596
STARLINK-4136           
1 53260U 22086U   24359.31987257  .00002292  00000+0  16204-3 0  9999
2 53260  53.2182  11.0178 0001543  94.1519 265.9650 15.08843510134588
STARLINK-4062           
1 53261U 22086V   24359.30515327 -.00000372  00000+0 -52729-5 0  9997
2 53261  53.2173  11.0830 0001388  94.6696 265.4455 15.08842001134584
STARLINK-4085           
1 53262U 22086W   24359.31251234  .00002923  00000+0  20162-3 0  9999
2 53262  53.2175  11.0504 0001454  93.6369 266.4789 15.08847397134589
STARLINK-4130           
1 53263U 22086X   24359.30147570  .00000455  00000+0  46670-4 0  9997
2 53263  53.2187  11.0980 0001559  91.7747 268.3424 15.08843327134582
STARLINK-3950           
1 53264U 22086Y   24359.30883366  .00002587  00000+0  18053-3 0  9999
2 53264  53.2171  11.0662 0001490  88.6003 271.5160 15.08842814134580
STARLINK-4097           
1 53265U 22086Z   24359.36035584  .00000647  00000+0  58752-4 0  9993
2 53265  53.2185  10.8340 0001418  93.1319 266.9836 15.08840162134590
STARLINK-4058           
1 53266U 22086AA  24359.36402351  .00004014  00000+0  27002-3 0  9999
2 53266  53.2185  10.8195 0001428  85.3909 274.7246 15.08855274134590
STARLINK-4060           
1 53267U 22086AB  24359.35299522  .00001014  00000+0  81822-4 0  9991
2 53267  53.2179  10.8662 0001577 100.4144 259.7026 15.08840512134596
STARLINK-4109           
1 53268U 22086AC  24359.35667543  .00001829  00000+0  13295-3 0  9996
2 53268  53.2179  10.8488 0001585  87.4419 272.6754 15.08840655134591
STARLINK-4057           
1 53269U 22086AD  24359.28031262  .00000519  00000+0  50725-4 0  9997
2 53269  53.2182   1.1924 0001452 102.1623 257.9531 15.08840467134713
STARLINK-4122           
1 53272U 22086AG  24359.28399564  .00000406  00000+0  43610-4 0  9993
2 53272  53.2188   1.1791 0001762  75.7866 284.3322 15.08836983134713
STARLINK-4051           
1 53273U 22086AH  24359.39807393  .00001540  00000+0  11483-3 0  9992
2 53273  53.2191   0.6657 0001642  87.4066 272.7114 15.08840447134723
STARLINK-4050           
1 53274U 22086AJ  24359.27663267  .00000293  00000+0  36510-4 0  9993
2 53274  53.2191   1.2092 0001589  90.6421 269.4754 15.08842473134718
STARLINK-4179           
1 53275U 22086AK  24359.32815580  .00001264  00000+0  97494-4 0  9994
2 53275  53.2186   0.9790 0001421  97.4222 262.6932 15.08837139134719
STARLINK-4174           
1 53276U 22086AL  24359.33551769  .00003479  00000+0  23648-3 0  9991
2 53276  53.2179   0.9447 0001874  96.2415 263.8791 15.08857024134715
STARLINK-4178           
1 53277U 22086AM  24359.38704388 -.00002225  00000+0 -12181-3 0  9994
2 53277  53.2193   0.7454 0001549  94.4907 265.6262 15.08823558134722
STARLINK-4180           
1 53278U 22086AN  24359.39071203  .00004621  00000+0  30817-3 0  9995
2 53278  53.2175   0.6979 0001647 106.9377 253.1796 15.08846998134720
STARLINK-4169           
1 53280U 22086AQ  24359.57695917  .00001735  00000+0  12705-3 0  9991
2 53280  53.2196 314.5329 0001556 100.9915 259.1252 15.08850850135392
STARLINK-4182           
1 53281U 22086AR  24359.72280093  .02710713  11926-4  93558-3 0  9998
2 53281  53.2047 340.0451 0001604 126.1530 222.0467 16.24674744134868
STARLINK-4164           
1 53282U 22086AS  24359.31711230  .00002110  00000+0  15066-3 0  9993
2 53282  53.2184   1.0313 0001172 102.2561 257.8563 15.08836416134715
STARLINK-4175           
1 53283U 22086AT  24359.43853866  .00005822  00000+0  38339-3 0  9990
2 53283  53.2189   0.4840 0001509  97.5086 262.6078 15.08857116134738
STARLINK-4172           
1 53284U 22086AU  24359.12708299  .01156237  91215-3  91367-3 0  9996
2 53284  53.2049 343.4026 0002646 113.8984 246.2331 16.14163199134944
STARLINK-4173           
1 53285U 22086AV  24359.29503498 -.00001227  00000+0 -59025-4 0  9992
2 53285  53.2194   1.1294 0001624  96.6699 263.4478 15.08845670134707
STARLINK-4165           
1 53286U 22086AW  24359.33915815  .00000658  00000+0  59442-4 0  9996
2 53286  53.2176   0.6222 0001643  85.4986 274.6194 15.08838352134718
STARLINK-4107           
1 53287U 22086AX  24359.42014984  .00000384  00000+0  42220-4 0  9996
2 53287  53.2194   0.5651 0001437  93.6176 266.4981 15.08843071134725
STARLINK-4162           
1 53288U 22086AY  24359.29871377 -.00000137  00000+0  94506-5 0  9991
2 53288  53.2180   1.1071 0001124  94.3667 265.7454 15.08837873134708
STARLINK-4176           
1 53289U 22086AZ  24359.26423317  .00000340  00000+0  39452-4 0  9999
2 53289  53.2180 356.4082 0001440  92.1217 267.9940 15.08837821134768
STARLINK-4149           
1 53290U 22086BA  24359.42383213  .00000576  00000+0  54289-4 0  9995
2 53290  53.2209   0.5452 0001630 111.0462 249.0705 15.08839633134723
STARLINK-4166           
1 53291U 22086BB  24359.29730839 -.00000344  00000+0 -35417-5 0  9999
2 53291  53.2193 355.9098 0001859 116.7588 243.3595 15.08838071134777
STARLINK-4159           
1 53292U 22086BC  24359.30241536  .00000274  00000+0  35294-4 0  9995
2 53292  53.2187   1.2760 0001492  96.5754 263.5408 15.08837606134704
STARLINK-4148           
1 53293U 22086BD  24359.38794899 -.00000138  00000+0  94399-5 0  9991
2 53293  53.2188 350.6982 0001541  93.7084 266.4084 15.08843370134856
STARLINK-4146           
1 53294U 22086BE  24359.27385473  .00002961  00000+0  20401-3 0  9990
2 53294  53.2177 351.0569 0001212 103.1618 256.9510 15.08844655134883
STARLINK-4522           
1 53388U 22097A   24359.55814927  .00002910  00000+0  20080-3 0  9995
2 53388  53.2184 299.9465 0001452  80.4873 279.6283 15.08853400132409
STARLINK-4523           
1 53389U 22097B   24359.55079195 -.00001173  00000+0 -55631-4 0  9999
2 53389  53.2186 299.9780 0001385  82.6774 277.4376 15.08834298132224
STARLINK-4517           
1 53390U 22097C   24359.22327114  .00000320  00000+0  38219-4 0  9996
2 53390  53.2184 301.4512 0001560  84.7898 275.3272 15.08841034132320
STARLINK-4521           
1 53391U 22097D   24359.54710237  .00002664  00000+0  18534-3 0  9994
2 53391  53.2173 299.9952 0001401  99.8047 260.3104 15.08849196132229
STARLINK-4535           
1 53392U 22097E   24359.53974984  .00004806  00000+0  31981-3 0  9996
2 53392  53.2167 300.0276 0001582  72.7079 287.4086 15.08844678132220
STARLINK-4530           
1 53393U 22097F   24359.54342725 -.00003351  00000+0 -19256-3 0  9997
2 53393  53.2177 300.0106 0001670  92.8221 267.2962 15.08832363132221
STARLINK-4544           
1 53394U 22097G   24359.55534608 -.00000376  00000+0 -55094-5 0  9998
2 53394  53.2181 289.5735 0001846  86.1672 273.9531 15.08838570132375
STARLINK-4534           
1 53395U 22097H   24359.53704346 -.00002666  00000+0 -14949-3 0  9991
2 53395  53.2203 300.0512 0001928  80.1293 279.9917 15.08827864132061
STARLINK-4524           
1 53396U 22097J   24359.25637162  .00002551  00000+0  17825-3 0  9999
2 53396  53.2181 301.3025 0001577  93.5202 266.5971 15.08858608132026
STARLINK-4515           
1 53397U 22097K   24359.53239619  .00002436  00000+0  17108-3 0  9992
2 53397  53.2203 300.0637 0001564 106.6105 253.5059 15.08849093132066
STARLINK-4512           
1 53398U 22097L   24359.58022579  .00001590  00000+0  11794-3 0  9998
2 53398  53.2188 299.8486 0001437  92.8779 267.2377 15.08845915132073
STARLINK-4528           
1 53399U 22097M   24359.26007016 -.00000693  00000+0 -25471-4 0  9996
2 53399  53.2187 301.2838 0001764  93.5789 266.5405 15.08842987132029
STARLINK-4520           
1 53400U 22097N   24359.56918517 -.00001324  00000+0 -65095-4 0  9997
2 53400  53.2199 299.8954 0001621  76.2931 283.8242 15.08838436132075
STARLINK-4525           
1 53401U 22097P   24359.58390578 -.00000557  00000+0 -16879-4 0  9994
2 53401  53.2197 299.8257 0001423 101.6280 258.4872 15.08843915132075
STARLINK-4499           
1 53402U 22097Q   24359.56551402 -.00000408  00000+0 -75424-5 0  9995
2 53402  53.2185 299.9121 0001831  85.8187 274.3015 15.08834596132077
STARLINK-4507           
1 53403U 22097R   24359.54442327  .00001469  00000+0  11033-3 0  9999
2 53403  53.2192 300.3525 0001459  88.9102 271.2057 15.08846910132062
STARLINK-4509           
1 53404U 22097S   24359.54898308 -.00001552  00000+0 -79451-4 0  9998
2 53404  53.2200 289.9168 0001538 104.9450 255.1713 15.08831820132201
STARLINK-4510           
1 53405U 22097T   24359.56183385  .00005067  00000+0  33605-3 0  9996
2 53405  53.2168 299.9320 0001596  79.8447 280.2725 15.08855461132070
STARLINK-4533           
1 53406U 22097U   24359.53699356  .00001145  00000+0  90029-4 0  9991
2 53406  53.2172 290.0409 0001966  91.9892 268.1325 15.08839064132203
STARLINK-4537           
1 53407U 22097V   24359.47905492 -.00001138  00000+0 -53434-4 0  9999
2 53407  53.2184 280.5363 0001649  98.7408 261.3771 15.08844953131848
STARLINK-4491           
1 53408U 22097W   24359.54802159  .00003444  00000+0  23426-3 0  9991
2 53408  53.2187 289.9979 0001710  90.5446 269.5742 15.08860618132204
